STARLINK-4288           
1 53005U 22076V   26068.46122715  .00000676  00000+0  60563-4 0  9992
2 53005  53.2176  95.1459 0001425  94.4429 265.6726 15.08840100202810
UMBRA-07                
1 58297U 23174AT  26068.71829358  .00012685  00000+0  84614-3 0  9990
2 58297  97.3902 128.3323 0004131  75.5473 284.6213 15.07174057128425
